[{"OBJECT_NAME":"STARLINK-35544","OBJECT_ID":"2025-225N","EPOCH":"2026-03-09T11:35:27.559968","MEAN_MOTION":15.30217116,"ECCENTRICITY":0.00015908,"INCLINATION":53.1585,"RA_OF_ASC_NODE":166.8394,"ARG_OF_PERICENTER":149.3151,"MEAN_ANOMALY":210.7943,"EPHEMERIS_TYPE":0,"CLASSIFICATION_TYPE":"U","NORAD_CAT_ID":65922,"ELEMENT_SET_NO":999,"REV_AT_EPOCH":2437,"BSTAR":0.00089130885,"MEAN_MOTION_DOT":0.00026146,"MEAN_MOTION_DDOT":0},{"OBJECT_NAME":"FENGYUN 1C DEB","OBJECT_ID":"1999-025BZU","EPOCH":"2026-03-09T17:19:51.665664","MEAN_MOTION":15.28412118,"ECCENTRICITY":0.00188802,"INCLINATION":98.9598,"RA_OF_ASC_NODE":354.2029,"ARG_OF_PERICENTER":82.3682,"MEAN_ANOMALY":277.9697,"EPHEMERIS_TYPE":0,"CLASSIFICATION_TYPE":"U","NORAD_CAT_ID":31614,"ELEMENT_SET_NO":999,"REV_AT_EPOCH":97742,"BSTAR":0.011500831,"MEAN_MOTION_DOT":0.0033373,"MEAN_MOTION_DDOT":0}]
